NORAD_CAT_ID,OBJECT_NAME,OBJECT_TYPE,EPOCH,MEAN_MOTION,ECCENTRICITY,INCLINATION,RA_OF_ASC_NODE,ARG_OF_PERICENTER,MEAN_ANOMALY,BSTAR,MEAN_MOTION_DOT,MEAN_MOTION_DDOT,TLE_LINE0,TLE_LINE1,TLE_LINE2,SEMIMAJOR_AXIS,PERIOD,APOGEE,PERIGEE,DECAYED
52302.0,STARLINK-3564,PAYLOAD,2022-05-05 14:00:01,15.73192804,0.0001351999999999,53.215,305.9975,52.3359,166.1113,-0.00018845,-0.00026975,0.0,0 STARLINK-3564,1 52302U 22041AT  22125.58334491 -.00026975  00000-0 -18845-3 0  9990,2 52302  53.2150 305.9975 0001352  52.3359 166.1113 15.73192804  3413,6727.916,91.534,350.69,348.871,0.0
52302.0,STARLINK-3564,PAYLOAD,2022-05-05 22:00:00,15.73136227,0.0001597,53.2146,304.3498,44.0149,263.3668,0.00037876,0.00052726,0.0,0 STARLINK-3564,1 52302U 22041AT  22125.91667824  .00052726  00000-0  37876-3 0  9992,2 52302  53.2146 304.3498 0001597  44.0149 263.3668 15.73136227  2902,6728.0769999999975,91.537,351.016,348.86800000000005,0.0
52302.0,STARLINK-3564,PAYLOAD,2022-05-06 08:00:01,15.73167618,0.0001477,53.2172,302.288,48.018,100.3088,0.00045715,0.00063939,0.0,0 STARLINK-3564,1 52302U 22041AT  22126.33334491  .00063939  00000-0  45715-3 0  9999,2 52302  53.2172 302.2880 0001477  48.0180 100.3088 15.73167618  3522,6727.986999999999,91.535,350.846,348.8590000000001,0.0
52302.0,STARLINK-3564,PAYLOAD,2022-05-06 14:00:01,15.73205741,0.0001496999999999,53.2175,301.0514,43.7763,81.2352,-1.6095e-05,-2.879e-05,0.0,0 STARLINK-3564,1 52302U 22041AT  22126.58334491 -.00002879  00000-0 -16095-4 0  9994,2 52302  53.2175 301.0514 0001497  43.7763  81.2352 15.73205741  3012,6727.879,91.533,350.751,348.737,0.0
52302.0,STARLINK-3564,PAYLOAD,2022-05-06 22:00:00,15.73164191,0.000156,53.215,299.401,34.0755,180.1434,0.00076806,0.00108407,0.0,0 STARLINK-3564,1 52302U 22041AT  22126.91667824  .00108407  00000-0  76806-3 0  9997,2 52302  53.2150 299.4010 0001560  34.0755 180.1434 15.73164191  3621,6727.996999999999,91.535,350.912,348.81300000000016,0.0
52302.0,STARLINK-3564,PAYLOAD,2022-05-07 06:00:02,15.73239837,0.0001389,53.2148,297.7496,37.7171,265.4859,-0.00010015,-0.00014675,0.0,0 STARLINK-3564,1 52302U 22041AT  22127.25002315 -.00014675  00000-0 -10015-3 0  9998,2 52302  53.2148 297.7496 0001389  37.7171 265.4859 15.73239837  3671,6727.781999999997,91.531,350.581,348.712,0.0
52302.0,STARLINK-3564,PAYLOAD,2022-05-07 14:00:01,15.73260706,0.0001428,53.2147,296.1005,36.3721,355.7243,-0.00098851,-0.00137466,0.0,0 STARLINK-3564,1 52302U 22041AT  22127.58334491 -.00137466  00000-0 -98851-3 0  9995,2 52302  53.2147 296.1005 0001428  36.3721 355.7243 15.73260706  3173,6727.722,91.53,350.548,348.626,0.0
52302.0,STARLINK-3564,PAYLOAD,2022-05-07 20:00:01,15.73142505,0.0001527,53.2144,294.8648,29.9979,338.8331,0.0002648,0.00036614,0.0,0 STARLINK-3564,1 52302U 22041AT  22127.83334491  .00036614  00000-0  26480-3 0  9993,2 52302  53.2144 294.8648 0001527  29.9979 338.8331 15.73142505  3762,6728.059,91.537,350.951,348.897,0.0
52302.0,STARLINK-3564,PAYLOAD,2022-05-07 22:00:00,15.7311761,0.0001518,53.2142,294.4527,24.8112,96.246,0.0007335,0.0010323,0.0,0 STARLINK-3564,1 52302U 22041AT  22127.91667824  .00103230  00000-0  73350-3 0  9998,2 52302  53.2142 294.4527 0001518  24.8112  96.2460 15.73117610  3223,6728.13,91.538,351.016,348.974,0.0
52302.0,STARLINK-3564,PAYLOAD,2022-05-08 14:00:01,15.73190242,0.0001541999999999,53.2144,291.152,35.4718,263.3743,-0.00019817,-0.00028327,0.0,0 STARLINK-3564,1 52302U 22041AT  22128.58334491 -.00028327  00000-0 -19817-3 0  9996,2 52302  53.2144 291.1520 0001542  35.4718 263.3743 15.73190242  3334,6727.9230000000025,91.534,350.825,348.751,0.0
52302.0,STARLINK-3564,PAYLOAD,2022-05-08 20:00:01,15.73160048,0.0001823,53.2145,289.9165,32.7482,242.7885,0.00062335,0.00087632,0.0,0 STARLINK-3564,1 52302U 22041AT  22128.83334491  .00087632  00000-0  62335-3 0  9999,2 52302  53.2145 289.9165 0001823  32.7482 242.7885 15.73160048  3929,6728.009,91.536,351.101,348.648,0.0
52302.0,STARLINK-3564,PAYLOAD,2022-05-08 22:00:00,15.73175025,0.0001847,53.2142,289.504,31.0515,356.7091,0.00056498,0.0007934,0.0,0 STARLINK-3564,1 52302U 22041AT  22128.91667824  .00079340  00000-0  56498-3 0  9997,2 52302  53.2142 289.5040 0001847  31.0515 356.7091 15.73175025  3385,6727.965999999999,91.535,351.074,348.589,0.0
52302.0,STARLINK-3564,PAYLOAD,2022-05-09 06:00:00,15.73181391,0.0001685,53.2141,287.8526,36.2564,80.4409,0.00014246,0.00019404,0.0,0 STARLINK-3564,1 52302U 22041AT  22129.25001157  .00019404  00000-0  14246-3 0  9996,2 52302  53.2141 287.8526 0001685  36.2564  80.4409 15.73181391  3988,6727.948,91.534,350.94699999999995,348.68,0.0
52302.0,STARLINK-3564,PAYLOAD,2022-05-09 14:00:01,15.73222371,0.0001797,53.214,286.2038,38.0559,167.6169,-2.7335e-06,-1.005e-05,0.0,0 STARLINK-3564,1 52302U 22041AT  22129.58335648 -.00001005  00000-0 -27335-5 0  9992,2 52302  53.2140 286.2038 0001797  38.0559 167.6169 15.73222371  3497,6727.831,91.532,350.905,348.487,0.0
52302.0,STARLINK-3564,PAYLOAD,2022-05-09 22:00:00,15.73208084,0.0001931,53.2133,284.5554,29.0543,265.5322,0.00023551,0.00032573,0.0,0 STARLINK-3564,1 52302U 22041AT  22129.91667824  .00032573  00000-0  23551-3 0  9999,2 52302  53.2133 284.5554 0001931  29.0543 265.5322 15.73208084  4097,6727.871999999999,91.533,351.036,348.43800000000016,0.0
52302.0,STARLINK-3564,PAYLOAD,2022-05-10 06:00:00,15.732194,0.0001706,53.2134,282.9036,33.0412,350.4821,-0.00023726,-0.00033814,0.0,0 STARLINK-3564,1 52302U 22041AT  22130.25001157 -.00033814  00000-0 -23726-3 0  9994,2 52302  53.2134 282.9036 0001706  33.0412 350.4821 15.73219400  4143,6727.84,91.532,350.853,348.557,0.0
52302.0,STARLINK-3564,PAYLOAD,2022-05-10 14:00:01,15.73217509,0.0001896,53.2136,281.255,34.9972,77.4544,-0.0004737,-0.00066632,0.0,0 STARLINK-3564,1 52302U 22041AT  22130.58334491 -.00066632  00000-0 -47370-3 0  9995,2 52302  53.2136 281.2550 0001896  34.9972  77.4544 15.73217509  3650,6727.845,91.532,350.986,348.435,0.0
52302.0,STARLINK-3564,PAYLOAD,2022-05-10 19:37:23,15.73212991,0.0001819,53.2139,280.0948,34.8216,325.2923,2.3566e-05,2.689e-05,0.0,0 STARLINK-3564,1 52302U 22041AT  22130.81763323  .00002689  00000-0  23566-4 0  9993,2 52302  53.2139 280.0948 0001819  34.8216 325.2923 15.73212991  4236,6727.858,91.532,350.94699999999995,348.499,0.0
52302.0,STARLINK-3564,PAYLOAD,2022-05-11 22:00:00,15.73189579,0.0002045,53.2144,274.6575,16.4741,91.6958,0.00053535,0.00075157,0.0,0 STARLINK-3564,1 52302U 22041AT  22131.91667824  .00075157  00000-0  53535-3 0  9992,2 52302  53.2144 274.6575 0002045  16.4741  91.6958 15.73189579  4404,6727.925,91.534,351.166,348.414,0.0
52302.0,STARLINK-3564,PAYLOAD,2022-05-12 04:00:00,15.73213656,0.0001825,53.2147,273.4186,19.2172,65.6521,0.00025751,0.00035695,0.0,0 STARLINK-3564,1 52302U 22041AT  22132.16667824  .00035695  00000-0  25751-3 0  9992,2 52302  53.2147 273.4186 0001825  19.2172  65.6521 15.73213656  4441,6727.856,91.532,350.949,348.49300000000005,0.0
52302.0,STARLINK-3564,PAYLOAD,2022-05-12 14:00:01,15.73240338,0.0002015,53.2154,271.3578,23.4829,262.5915,-0.00065259,-0.00091385,0.0,0 STARLINK-3564,1 52302U 22041AT  22132.58334491 -.00091385  00000-0 -65259-3 0  9996,2 52302  53.2154 271.3578 0002015  23.4829 262.5915 15.73240338  1303,6727.78,91.531,351.001,348.29,0.0
52302.0,STARLINK-3564,PAYLOAD,2022-05-12 20:00:01,15.7323293,0.0002263,53.215,270.121,21.5489,241.3057,-0.0006328,-0.00088637,0.0,0 STARLINK-3564,1 52302U 22041AT  22132.83334491 -.00088637  00000-0 -63280-3 0  9992,2 52302  53.2150 270.1210 0002263  21.5489 241.3057 15.73232930  4556,6727.801,91.531,351.189,348.144,0.0
52302.0,STARLINK-3564,PAYLOAD,2022-05-12 22:00:00,15.73224389,0.0002282,53.2148,269.7082,21.1225,353.9698,-0.00072388,-0.00101121,0.0,0 STARLINK-3564,1 52302U 22041AT  22132.91667824 -.00101121  00000-0 -72388-3 0  9993,2 52302  53.2148 269.7082 0002282  21.1225 353.9698 15.73224389  1309,6727.826,91.532,351.226,348.155,0.0
52302.0,STARLINK-3564,PAYLOAD,2022-05-13 14:00:01,15.73197477,0.0002335,53.2149,266.4088,26.0632,166.7793,-0.00012623,-0.00018299,0.0,0 STARLINK-3564,1 52302U 22041AT  22133.58334491 -.00018299  00000-0 -12623-3 0  9997,2 52302  53.2149 266.4088 0002335  26.0632 166.7793 15.73197477  4660,6727.901999999999,91.533,351.338,348.196,0.0
52302.0,STARLINK-3564,PAYLOAD,2022-05-13 22:00:00,15.73168946,0.0002378,53.2147,264.7593,20.8577,260.9082,0.00019669,0.00027038,0.0,0 STARLINK-3564,1 52302U 22041AT  22133.91667824  .00027038  00000-0  19669-3 0  9999,2 52302  53.2147 264.7593 0002378  20.8577 260.9082 15.73168946  1302,6727.984,91.535,351.449,348.249,0.0
52302.0,STARLINK-3564,PAYLOAD,2022-05-14 06:00:00,15.73175399,0.0002209,53.2146,263.108,23.161,347.5092,0.00065391,0.00092071,0.0,0 STARLINK-3564,1 52302U 22041AT  22134.25001157  .00092071  00000-0  65391-3 0  9990,2 52302  53.2146 263.1080 0002209  23.1610 347.5092 15.73175399  4779,6727.965,91.535,351.31699999999995,348.344,0.0
52302.0,STARLINK-3564,PAYLOAD,2022-05-14 14:00:01,15.7324255,0.0002455,53.2149,261.46,23.1645,76.5145,-0.00043671,-0.00061585,0.0,0 STARLINK-3564,1 52302U 22041AT  22134.58334491 -.00061585  00000-0 -43671-3 0  9991,2 52302  53.2149 261.4600 0002455  23.1645  76.5145 15.73242550  1300,6727.774,91.531,351.291,347.987,0.0
52302.0,STARLINK-3564,PAYLOAD,2022-05-14 22:00:00,15.73211384,0.0002505,53.2149,259.8106,18.3074,170.3251,4.4304e-06,0.0,0.0,0 STARLINK-3564,1 52302U 22041AT  22134.91667824 -.00000000  00000-0  44304-5 0  9997,2 52302  53.2149 259.8106 0002505  18.3074 170.3251 15.73211384  4877,6727.863,91.533,351.413,348.042,0.0
52302.0,STARLINK-3564,PAYLOAD,2022-05-15 06:00:00,15.73153796,0.0002338,53.2151,258.1591,17.6362,259.9382,0.00053142,0.00074482,0.0,0 STARLINK-3564,1 52302U 22041AT  22135.25001157  .00074482  00000-0  53142-3 0  9998,2 52302  53.2151 258.1591 0002338  17.6362 259.9382 15.73153796  4934,6728.026999999999,91.536,351.465,348.319,0.0
